[Satellite]
VERSION=1.1
NAME=FLOCK 2E'-1
NICKNAME=FLOCK 2E'-1
TLE1=1 41479U 98067HZ  18020.91279314  .00062967  00000-0  25015-3 0  9998
TLE2=2 41479  51.6324 335.0250 0002204  73.0664 287.0582 15.86069255 96194
